NAVSTAR 48 (USA 151)    
1 26407U 00040A   26201.31340146  .00000062  00000+0  00000+0 0  9992
2 26407  54.8480 213.8463 0120370 302.8111 139.2018  2.00557971190613
NAVSTAR 51 (USA 166)    
1 27663U 03005A   26201.26349584  .00000062  00000+0  00000+0 0  9990
2 27663  54.8784 213.6545 0148395  53.1892 129.0086  2.00558827171974
NAVSTAR 54 (USA 177)    
1 28190U 04009A   26201.30538733 -.00000051  00000+0  00000+0 0  9991
2 28190  54.8023 274.3476 0117338 174.5558 190.3314  2.00553616163611
NAVSTAR 56 (USA 180)    
1 28474U 04045A   26200.99845010 -.00000107  00000+0  00000+0 0  9991
2 28474  55.1149 323.5747 0170263 317.1768 251.2314  2.00557373159088
NAVSTAR 57 (USA 183)    
1 28874U 05038A   26201.26839875 -.00000046  00000+0  00000+0 0  9993
2 28874  54.8515 271.8407 0128304 296.4784  71.5848  2.00563446152502
INMARSAT 4-F2           
1 28899U 05044A   26201.29036262 -.00000265  00000+0  00000+0 0  9992
2 28899   5.1387  43.6796 0002924  61.7327  80.6729  1.00271135 75857
NAVSTAR 58 (USA 190)    
1 29486U 06042A   26200.91505178  .00000036  00000+0  00000+0 0  9994
2 29486  54.7131 150.0396 0107314  55.2925 316.6645  2.00568000145057
NAVSTAR 59 (USA 192)    
1 29601U 06052A   26200.82666868  .00000058  00000+0  00000+0 0  9992
2 29601  54.9319 212.7123 0084746  91.0071 269.9911  2.00559979144064
NAVSTAR 60 (USA 196)    
1 32260U 07047A   26201.13252352 -.00000064  00000+0  00000+0 0  9994
2 32260  54.1195  78.7075 0167952  88.1073 273.8731  2.00553782137476
COSMOS 2433 [GLONASS-M] 
1 32275U 07052A   26198.88664809 -.00000070  00000+0  00000+0 0  9994
2 32275  65.5578 314.9006 0003631 203.8821 156.1180  2.13104037145718
COSMOS 2432 [GLONASS-M] 
1 32276U 07052B   26200.42877255 -.00000079  00000+0  00000+0 0  9999
2 32276  65.5728 314.9771 0007373 321.3714  85.4621  2.13103034145775
NAVSTAR 61 (USA 199)    
1 32384U 07062A   26200.42475249 -.00000047  00000+0  00000+0 0  9992
2 32384  55.0061 272.8552 0036069 167.8410 169.2189  2.00561903136159
COSMOS 2434 [GLONASS-M] 
1 32393U 07065A   26199.49568220  .00000065  00000+0  00000+0 0  9990
2 32393  64.3202 190.8597 0001233 326.9616  29.9549  2.13101158144436
COSMOS 2436 [GLONASS-M] 
1 32395U 07065C   26200.48992866  .00000075  00000+0  00000+0 0  9992
2 32395  64.3287 190.8988 0017324 353.6261 178.2139  2.13099974144419
NAVSTAR 62 (USA 201)    
1 32711U 08012A   26201.04071868  .00000034  00000+0  00000+0 0  9995
2 32711  54.5004 148.6123 0211725 248.1970 109.5164  2.00573308134415
NAVSTAR 64 (USA 206)    
1 35752U 09043A   26201.27567995 -.00000090  00000+0  00000+0 0  9997
2 35752  56.2311  26.1534 0053667  84.6135  92.2498  2.00552591124029
COSMOS 2456 [GLONASS-M] 
1 36111U 09070A   26197.17812943 -.00000016  00000+0  00000+0 0  9994
2 36111  65.0282  69.9837 0003619 341.3386 195.9451  2.13103565129042
COSMOS 2457 [GLONASS-M] 
1 36112U 09070B   26201.23645572 -.00000051  00000+0  00000+0 0  9999
2 36112  65.0165  69.6883 0004303 122.0917  55.7210  2.13100985129135
COSMOS 2460 [GLONASS-M] 
1 36402U 10007C   26200.58253774 -.00000079  00000+0  00000+0 0  9999
2 36402  65.3996 313.3704 0001858 149.6273 248.4791  2.13101428127423
NAVSTAR 65 (USA 213)    
1 36585U 10022A   26201.31968566  .00000067  00000+0  00000+0 0  9998
2 36585  54.2682 207.2273 0126854  66.1604 262.5976  2.00564071118257
BEIDOU-2 IGSO-1         
1 36828U 10036A   26200.58927551 -.00000097  00000+0  00000+0 0  9994
2 36828  54.3073 162.6674 0058652 225.1805 228.5775  1.00262639 58426
BEIDOU-2 G4             
1 37210U 10057A   26201.34642885 -.00000117  00000+0  00000+0 0  9995
2 37210   3.7277  68.7436 0005415 185.5898 328.4387  1.00272769 57623
BEIDOU-2 IGSO-2         
1 37256U 10068A   26200.83841608 -.00000205  00000+0  00000+0 0  9992
2 37256  47.4862 271.4234 0057032 214.1385 222.1771  1.00272665 57126
BEIDOU-2 IGSO-3         
1 37384U 11013A   26200.49843839 -.00000176  00000+0  00000+0 0  9992
2 37384  62.4524  39.8452 0035663 183.4558 359.6554  1.00259758 55989
GSAT-8                  
1 37605U 11022A   26201.20155978  .00000081  00000+0  00000+0 0  9992
2 37605   2.2144  81.4233 0002529 152.8051 191.3883  1.00270921 53549
BEIDOU-2 IGSO-4         
1 37763U 11038A   26200.83652448 -.00000023  00000+0  00000+0 0  9993
2 37763  54.6050 165.3822 0160323 231.4991 296.2808  1.00278594 54975
GSAT0101 (GALILEO-PFM)  
1 37846U 11060A   26198.93738454 -.00000105  00000+0  00000+0 0  9990
2 37846  56.9832 340.9281 0002114  62.8592 297.1517  1.70475655 91642
GSAT0102 (GALILEO-FM2)  
1 37847U 11060B   26200.63714288 -.00000107  00000+0  00000+0 0  9993
2 37847  56.9834 340.8826 0001936   5.0706   3.7701  1.70475938 91680
COSMOS 2476 [GLONASS-M] 
1 37867U 11064A   26199.17433977 -.00000032  00000+0  00000+0 0  9995
2 37867  65.2874  71.8256 0022067 235.6441 301.3919  2.13103618114429
COSMOS 2477 [GLONASS-M] 
1 37868U 11064B   26200.37594390 -.00000043  00000+0  00000+0 0  9990
2 37868  65.2948  71.8648 0019062 236.5942 322.5208  2.13102797114449
COSMOS 2475 [GLONASS-M] 
1 37869U 11064C   26200.41318713 -.00000044  00000+0  00000+0 0  9990
2 37869  65.3016  71.8854 0024569 250.6224 292.0479  2.13101651114454
